HAWK-A                  
1 43765U 18099H   26068.67628545  .00008617  00000+0  36104-3 0  9995
2 43765  97.4051 122.2425 0034260 275.5523  84.1807 15.23231043397949
STARLINK-32952          
1 63146U 25043Q   26068.29760970  .00038903  00000+0  14150-2 0  9991
2 63146  43.0027  25.2453 0002260 286.1266  73.9336 15.27597294 57857
