[{"OBJECT_NAME":"HAWK-A","OBJECT_ID":"2018-099H","EPOCH":"2026-03-09T16:13:51.062880","MEAN_MOTION":15.23231043,"ECCENTRICITY":0.00342596,"INCLINATION":97.4051,"RA_OF_ASC_NODE":122.2425,"ARG_OF_PERICENTER":275.5523,"MEAN_ANOMALY":84.1807,"EPHEMERIS_TYPE":0,"CLASSIFICATION_TYPE":"U","NORAD_CAT_ID":43765,"ELEMENT_SET_NO":999,"REV_AT_EPOCH":39794,"BSTAR":0.00036104215,"MEAN_MOTION_DOT":8.617e-5,"MEAN_MOTION_DDOT":0},{"OBJECT_NAME":"STARLINK-32952","OBJECT_ID":"2025-043Q","EPOCH":"2026-03-09T07:08:33.478080","MEAN_MOTION":15.27597294,"ECCENTRICITY":0.00022601,"INCLINATION":43.0027,"RA_OF_ASC_NODE":25.2453,"ARG_OF_PERICENTER":286.1266,"MEAN_ANOMALY":73.9336,"EPHEMERIS_TYPE":0,"CLASSIFICATION_TYPE":"U","NORAD_CAT_ID":63146,"ELEMENT_SET_NO":999,"REV_AT_EPOCH":5785,"BSTAR":0.0014150003,"MEAN_MOTION_DOT":0.00038903,"MEAN_MOTION_DDOT":0}]
